{"type": "FeatureCollection", "features": [ {"type": "Feature", "properties": {"norad_id": 42987, "name": "SKYSAT-C11", "group": "resource", "lat": -10.86634953843555, "lon": 137.06602469088108, "alt_km": 427.47982224217594, "timestamp": "2025-12-23T20:42:36.730048+00:00", "meta": {"OBJECT_NAME": "SKYSAT-C11", "OBJECT_ID": "2017-068A", "EPOCH": "2025-12-22T19:55:58.994688", "MEAN_MOTION": 15.47855461, "ECCENTRICITY": 0.000117, "INCLINATION": 97.4148, "RA_OF_ASC_NODE": 134.575, "ARG_OF_PERICENTER": 96.9665, "MEAN_ANOMALY": 263.1718, "EPHEMERIS_TYPE": 0, "CLASSIFICATION_TYPE": "U", "NORAD_CAT_ID": 42987, "ELEMENT_SET_NO": 999, "REV_AT_EPOCH": 45587, "BSTAR": 0.00044558877, "MEAN_MOTION_DOT": 0.00023113, "MEAN_MOTION_DDOT": 0}, "tle": {"line1": "1 42987U 17068A   25356.83054392  .00023113  00000+0  44559-3 0  9996", "line2": "2 42987  97.4148 134.5750 0001170  96.9665 263.1718 15.47855461455873"}}, "geometry": {"type": "Point", "coordinates": [137.06602469088108, -10.86634953843555]}}, {"type": "Feature", "properties": {"norad_id": 42988, "name": "SKYSAT-C10", "group": "resource", "lat": 9.716622889279472, "lon": -49.97369339916575, "alt_km": 471.20912083035546, "timestamp": "2025-12-23T20:42:36.730059+00:00", "meta": {"OBJECT_NAME": "SKYSAT-C10", "OBJECT_ID": "2017-068B", "EPOCH": "2025-12-23T07:25:56.584416", "MEAN_MOTION": 15.32276557, "ECCENTRICITY": 0.00053363, "INCLINATION": 97.4269, "RA_OF_ASC_NODE": 128.1915, "ARG_OF_PERICENTER": 74.5871, "MEAN_ANOMALY": 285.596, "EPHEMERIS_TYPE": 0, "CLASSIFICATION_TYPE": "U", "NORAD_CAT_ID": 42988, "ELEMENT_SET_NO": 999, "REV_AT_EPOCH": 45541, "BSTAR": 0.00037307098, "MEAN_MOTION_DOT": 0.00011557, "MEAN_MOTION_DDOT": 0}, "tle": {"line1": "1 42988U 17068B   25357.30968269  .00011557  00000+0  37307-3 0  9999", "line2": "2 42988  97.4269 128.1915 0005336  74.5871 285.5960 15.32276557455413"}}, "geometry": {"type": "Point", "coordinates": [-49.97369339916575, 9.716622889279472]}}, {"type": "Feature", "properties": {"norad_id": 42989, "name": "SKYSAT-C9", "group": "resource", "lat": 1.8820417567286396, "lon": -51.54839123450079, "alt_km": 464.0236561926022, "timestamp": "2025-12-23T20:42:36.730070+00:00", "meta": {"OBJECT_NAME": "SKYSAT-C9", "OBJECT_ID": "2017-068C", "EPOCH": "2025-12-23T07:25:59.531520", "MEAN_MOTION": 15.36305474, "ECCENTRICITY": 0.00103605, "INCLINATION": 97.4198, "RA_OF_ASC_NODE": 127.6485, "ARG_OF_PERICENTER": 53.9545, "MEAN_ANOMALY": 306.2657, "EPHEMERIS_TYPE": 0, "CLASSIFICATION_TYPE": "U", "NORAD_CAT_ID": 42989, "ELEMENT_SET_NO": 999, "REV_AT_EPOCH": 45570, "BSTAR": 0.00038551352, "MEAN_MOTION_DOT": 0.00013595, "MEAN_MOTION_DDOT": 0}, "tle": {"line1": "1 42989U 17068C   25357.30971680  .00013595  00000+0  38551-3 0  9997", "line2": "2 42989  97.4198 127.6485 0010360  53.9545 306.2657 15.36305474455704"}}, "geometry": {"type": "Point", "coordinates": [-51.54839123450079, 1.8820417567286396]}}, {"type": "Feature", "properties": {"norad_id": 42990, "name": "SKYSAT-C8", "group": "resource", "lat": 22.565638550469814, "lon": 124.80509910411676, "alt_km": 466.271569411625, "timestamp": "2025-12-23T20:42:36.730081+00:00", "meta": {"OBJECT_NAME": "SKYSAT-C8", "OBJECT_ID": "2017-068D", "EPOCH": "2025-12-22T22:40:52.727808", "MEAN_MOTION": 15.33134527, "ECCENTRICITY": 0.00010062, "INCLINATION": 97.429, "RA_OF_ASC_NODE": 126.9913, "ARG_OF_PERICENTER": 287.2587, "MEAN_ANOMALY": 72.8545, "EPHEMERIS_TYPE": 0, "CLASSIFICATION_TYPE": "U", "NORAD_CAT_ID": 42990, "ELEMENT_SET_NO": 999, "REV_AT_EPOCH": 45527, "BSTAR": 0.00038454262, "MEAN_MOTION_DOT": 0.00012237, "MEAN_MOTION_DDOT": 0}, "tle": {"line1": "1 42990U 17068D   25356.94505472  .00012237  00000+0  38454-3 0  9994", "line2": "2 42990  97.4290 126.9913 0001006 287.2587  72.8545 15.33134527455272"}}, "geometry": {"type": "Point", "coordinates": [124.80509910411676, 22.565638550469814]}}, {"type": "Feature", "properties": {"norad_id": 42991, "name": "SKYSAT-C7", "group": "resource", "lat": -34.09906645930252, "lon": -56.12325423607651, "alt_km": 479.1494252065213, "timestamp": "2025-12-23T20:42:36.730091+00:00", "meta": {"OBJECT_NAME": "SKYSAT-C7", "OBJECT_ID": "2017-068E", "EPOCH": "2025-12-23T04:06:27.213120", "MEAN_MOTION": 15.32536549, "ECCENTRICITY": 0.00069643, "INCLINATION": 97.4295, "RA_OF_ASC_NODE": 128.2509, "ARG_OF_PERICENTER": 24.3723, "MEAN_ANOMALY": 335.7847, "EPHEMERIS_TYPE": 0, "CLASSIFICATION_TYPE": "U", "NORAD_CAT_ID": 42991, "ELEMENT_SET_NO": 999, "REV_AT_EPOCH": 45537, "BSTAR": 0.00037649309, "MEAN_MOTION_DOT": 0.00011763, "MEAN_MOTION_DDOT": 0}, "tle": {"line1": "1 42991U 17068E   25357.17114830  .00011763  00000+0  37649-3 0  9993", "line2": "2 42991  97.4295 128.2509 0006964  24.3723 335.7847 15.32536549455370"}}, "geometry": {"type": "Point", "coordinates": [-56.12325423607651, -34.09906645930252]}}, {"type": "Feature", "properties": {"norad_id": 42992, "name": "SKYSAT-C6", "group": "resource", "lat": -61.552296770767605, "lon": 143.31883863138623, "alt_km": 479.28270690906993, "timestamp": "2025-12-23T20:42:36.730102+00:00", "meta": {"OBJECT_NAME": "SKYSAT-C6", "OBJECT_ID": "2017-068F", "EPOCH": "2025-12-23T03:44:08.203200", "MEAN_MOTION": 15.31692188, "ECCENTRICITY": 0.00048619, "INCLINATION": 97.4329, "RA_OF_ASC_NODE": 128.6655, "ARG_OF_PERICENTER": 54.2733, "MEAN_ANOMALY": 305.896, "EPHEMERIS_TYPE": 0, "CLASSIFICATION_TYPE": "U", "NORAD_CAT_ID": 42992, "ELEMENT_SET_NO": 999, "REV_AT_EPOCH": 45535, "BSTAR": 0.00035814285, "MEAN_MOTION_DOT": 0.00010889, "MEAN_MOTION_DDOT": 0}, "tle": {"line1": "1 42992U 17068F   25357.15565050  .00010889  00000+0  35814-3 0  9996", "line2": "2 42992  97.4329 128.6655 0004861  54.2733 305.8960 15.31692188455355"}}, "geometry": {"type": "Point", "coordinates": [143.31883863138623, -61.552296770767605]}}, {"type": "Feature", "properties": {"norad_id": 43111, "name": "CARTOSAT-2F", "group": "resource", "lat": -82.55042286859899, "lon": 141.74224670686328, "alt_km": 516.5527049591201, "timestamp": "2025-12-23T20:42:36.730112+00:00", "meta": {"OBJECT_NAME": "CARTOSAT-2F", "OBJECT_ID": "2018-004A", "EPOCH": "2025-12-23T06:52:37.613280", "MEAN_MOTION": 15.19220351, "ECCENTRICITY": 0.00015238, "INCLINATION": 97.4301, "RA_OF_ASC_NODE": 54.7529, "ARG_OF_PERICENTER": 110.3046, "MEAN_ANOMALY": 249.8353, "EPHEMERIS_TYPE": 0, "CLASSIFICATION_TYPE": "U", "NORAD_CAT_ID": 43111, "ELEMENT_SET_NO": 999, "REV_AT_EPOCH": 44062, "BSTAR": 0.00018171167, "MEAN_MOTION_DOT": 3.759e-05, "MEAN_MOTION_DDOT": 0}, "tle": {"line1": "1 43111U 18004A   25357.28654645  .00003759  00000+0  18171-3 0  9999", "line2": "2 43111  97.4301  54.7529 0001523 110.3046 249.8353 15.19220351440623"}}, "geometry": {"type": "Point", "coordinates": [141.74224670686328, -82.55042286859899]}}, {"type": "Feature", "properties": {"norad_id": 43259, "name": "GAOFEN-1 02", "group": "resource", "lat": 54.148157603132226, "lon": -113.00730826511666, "alt_km": 634.3749329327547, "timestamp": "2025-12-23T20:42:36.730123+00:00", "meta": {"OBJECT_NAME": "GAOFEN-1 02", "OBJECT_ID": "2018-031A", "EPOCH": "2025-12-23T07:08:01.727808", "MEAN_MOTION": 14.76435417, "ECCENTRICITY": 0.00024746, "INCLINATION": 98.0792, "RA_OF_ASC_NODE": 55.0901, "ARG_OF_PERICENTER": 177.0834, "MEAN_ANOMALY": 183.0391, "EPHEMERIS_TYPE": 0, "CLASSIFICATION_TYPE": "U", "NORAD_CAT_ID": 43259, "ELEMENT_SET_NO": 999, "REV_AT_EPOCH": 41674, "BSTAR": 0.00012118816, "MEAN_MOTION_DOT": 7.91e-06, "MEAN_MOTION_DDOT": 0}, "tle": {"line1": "1 43259U 18031A   25357.29724222  .00000791  00000+0  12119-3 0  9991", "line2": "2 43259  98.0792  55.0901 0002474 177.0834 183.0391 14.76435417416746"}}, "geometry": {"type": "Point", "coordinates": [-113.00730826511666, 54.148157603132226]}}, {"type": "Feature", "properties": {"norad_id": 43260, "name": "GAOFEN-1 03", "group": "resource", "lat": -60.0867465591768, "lon": -138.76081845351703, "alt_km": 646.5685894676917, "timestamp": "2025-12-23T20:42:36.730133+00:00", "meta": {"OBJECT_NAME": "GAOFEN-1 03", "OBJECT_ID": "2018-031B", "EPOCH": "2025-12-23T06:36:34.742304", "MEAN_MOTION": 14.76457392, "ECCENTRICITY": 0.00017023, "INCLINATION": 98.0784, "RA_OF_ASC_NODE": 54.9439, "ARG_OF_PERICENTER": 265.659, "MEAN_ANOMALY": 94.4425, "EPHEMERIS_TYPE": 0, "CLASSIFICATION_TYPE": "U", "NORAD_CAT_ID": 43260, "ELEMENT_SET_NO": 999, "REV_AT_EPOCH": 41673, "BSTAR": 0.00013181271, "MEAN_MOTION_DOT": 8.65e-06, "MEAN_MOTION_DDOT": 0}, "tle": {"line1": "1 43260U 18031B   25357.27540211  .00000865  00000+0  13181-3 0  9997", "line2": "2 43260  98.0784  54.9439 0001702 265.6590  94.4425 14.76457392416737"}}, "geometry": {"type": "Point", "coordinates": [-138.76081845351703, -60.0867465591768]}}, {"type": "Feature", "properties": {"norad_id": 43262, "name": "GAOFEN-1 04", "group": "resource", "lat": 9.951475782226455, "lon": 54.27402230100184, "alt_km": 641.9541307573836, "timestamp": "2025-12-23T20:42:36.730143+00:00", "meta": {"OBJECT_NAME": "GAOFEN-1 04", "OBJECT_ID": "2018-031D", "EPOCH": "2025-12-23T07:39:09.256032", "MEAN_MOTION": 14.76425725, "ECCENTRICITY": 6.03e-05, "INCLINATION": 98.0793, "RA_OF_ASC_NODE": 55.158, "ARG_OF_PERICENTER": 57.4339, "MEAN_ANOMALY": 302.6929, "EPHEMERIS_TYPE": 0, "CLASSIFICATION_TYPE": "U", "NORAD_CAT_ID": 43262, "ELEMENT_SET_NO": 999, "REV_AT_EPOCH": 41673, "BSTAR": 0.00012930572, "MEAN_MOTION_DOT": 8.47e-06, "MEAN_MOTION_DDOT": 0}, "tle": {"line1": "1 43262U 18031D   25357.31885713  .00000847  00000+0  12931-3 0  9995", "line2": "2 43262  98.0793  55.1580 0000603  57.4339 302.6929 14.76425725416734"}}, "geometry": {"type": "Point", "coordinates": [54.27402230100184, 9.951475782226455]}}]}